{"type": "FeatureCollection", "features": [ {"type": "Feature", "properties": {"norad_id": 44476, "name": "INTELSAT 39 (IS-39)", "group": "intelsat", "lat": -0.03283454825191566, "lon": -100.94977689172713, "alt_km": 35789.906596174435, "timestamp": "2025-12-12T07:43:20.171651+00:00", "meta": {"OBJECT_NAME": "INTELSAT 39 (IS-39)", "OBJECT_ID": "2019-049B", "EPOCH": "2025-12-11T23:25:15.903264", "MEAN_MOTION": 1.00267474, "ECCENTRICITY": 0.0001157, "INCLINATION": 0.0183, "RA_OF_ASC_NODE": 320.2601, "ARG_OF_PERICENTER": 176.2508, "MEAN_ANOMALY": 357.6803, "EPHEMERIS_TYPE": 0, "CLASSIFICATION_TYPE": "U", "NORAD_CAT_ID": 44476, "ELEMENT_SET_NO": 999, "REV_AT_EPOCH": 2325, "BSTAR": 0, "MEAN_MOTION_DOT": 4.3e-07, "MEAN_MOTION_DDOT": 0}, "tle": {"line1": "1 44476U 19049B   25345.97587851  .00000043  00000+0  00000+0 0  9992", "line2": "2 44476   0.0183 320.2601 0001157 176.2508 357.6803  1.00267474 23251"}}, "geometry": {"type": "Point", "coordinates": [-100.94977689172713, -0.03283454825191566]}}, {"type": "Feature", "properties": {"norad_id": 46114, "name": "GALAXY 30 (G-30)", "group": "intelsat", "lat": 0.03722506528569919, "lon": 72.10493424080305, "alt_km": 35795.29290048273, "timestamp": "2025-12-12T07:43:20.171662+00:00", "meta": {"OBJECT_NAME": "GALAXY 30 (G-30)", "OBJECT_ID": "2020-056C", "EPOCH": "2025-12-11T23:11:21.488352", "MEAN_MOTION": 1.00272653, "ECCENTRICITY": 0.00022681, "INCLINATION": 0.0191, "RA_OF_ASC_NODE": 335.5814, "ARG_OF_PERICENTER": 285.5997, "MEAN_ANOMALY": 42.5791, "EPHEMERIS_TYPE": 0, "CLASSIFICATION_TYPE": "U", "NORAD_CAT_ID": 46114, "ELEMENT_SET_NO": 999, "REV_AT_EPOCH": 1941, "BSTAR": 0, "MEAN_MOTION_DOT": 4.5e-07, "MEAN_MOTION_DDOT": 0}, "tle": {"line1": "1 46114U 20056C   25345.96622093  .00000045  00000+0  00000+0 0  9992", "line2": "2 46114   0.0191 335.5814 0002268 285.5997  42.5791  1.00272653 19410"}}, "geometry": {"type": "Point", "coordinates": [72.10493424080305, 0.03722506528569919]}}, {"type": "Feature", "properties": {"norad_id": 54026, "name": "GALAXY 33 (G-33)", "group": "intelsat", "lat": 0.03004916662427174, "lon": 64.10336773021992, "alt_km": 35794.626781452134, "timestamp": "2025-12-12T07:43:20.171674+00:00", "meta": {"OBJECT_NAME": "GALAXY 33 (G-33)", "OBJECT_ID": "2022-128A", "EPOCH": "2025-12-11T16:18:14.017824", "MEAN_MOTION": 1.00271184, "ECCENTRICITY": 0.00020309, "INCLINATION": 0.0122, "RA_OF_ASC_NODE": 329.7994, "ARG_OF_PERICENTER": 285.1983, "MEAN_ANOMALY": 297.1989, "EPHEMERIS_TYPE": 0, "CLASSIFICATION_TYPE": "U", "NORAD_CAT_ID": 54026, "ELEMENT_SET_NO": 999, "REV_AT_EPOCH": 1186, "BSTAR": 0, "MEAN_MOTION_DOT": 8.7e-07, "MEAN_MOTION_DDOT": 0}, "tle": {"line1": "1 54026U 22128A   25345.67932891  .00000087  00000+0  00000+0 0  9999", "line2": "2 54026   0.0122 329.7994 0002030 285.1983 297.1989  1.00271184 11863"}}, "geometry": {"type": "Point", "coordinates": [64.10336773021992, 0.03004916662427174]}}, {"type": "Feature", "properties": {"norad_id": 54027, "name": "GALAXY 34 (G-34)", "group": "intelsat", "lat": 0.040550710689117954, "lon": 68.16377234533854, "alt_km": 35792.49540901713, "timestamp": "2025-12-12T07:43:20.171686+00:00", "meta": {"OBJECT_NAME": "GALAXY 34 (G-34)", "OBJECT_ID": "2022-128B", "EPOCH": "2025-12-11T16:19:21.410688", "MEAN_MOTION": 1.00269841, "ECCENTRICITY": 0.00014039, "INCLINATION": 0.0224, "RA_OF_ASC_NODE": 340.3184, "ARG_OF_PERICENTER": 271.9035, "MEAN_ANOMALY": 304.3231, "EPHEMERIS_TYPE": 0, "CLASSIFICATION_TYPE": "U", "NORAD_CAT_ID": 54027, "ELEMENT_SET_NO": 999, "REV_AT_EPOCH": 1203, "BSTAR": 0, "MEAN_MOTION_DOT": 0, "MEAN_MOTION_DDOT": 0}, "tle": {"line1": "1 54027U 22128B   25345.68010892  .00000000  00000+0  00000+0 0  9994", "line2": "2 54027   0.0224 340.3184 0001403 271.9035 304.3231  1.00269841 12039"}}, "geometry": {"type": "Point", "coordinates": [68.16377234533854, 0.040550710689117954]}}, {"type": "Feature", "properties": {"norad_id": 54243, "name": "GALAXY 31 (G-31)", "group": "intelsat", "lat": 0.015899726627382284, "lon": 76.10704484078298, "alt_km": 35793.157952419955, "timestamp": "2025-12-12T07:43:20.171698+00:00", "meta": {"OBJECT_NAME": "GALAXY 31 (G-31)", "OBJECT_ID": "2022-153A", "EPOCH": "2025-12-11T23:12:28.881216", "MEAN_MOTION": 1.00271366, "ECCENTRICITY": 0.00017108, "INCLINATION": 0.0143, "RA_OF_ASC_NODE": 273.7282, "ARG_OF_PERICENTER": 357.8137, "MEAN_ANOMALY": 36.5025, "EPHEMERIS_TYPE": 0, "CLASSIFICATION_TYPE": "U", "NORAD_CAT_ID": 54243, "ELEMENT_SET_NO": 999, "REV_AT_EPOCH": 525, "BSTAR": 0, "MEAN_MOTION_DOT": 2.2e-07, "MEAN_MOTION_DDOT": 0}, "tle": {"line1": "1 54243U 22153A   25345.96700094  .00000022  00000+0  00000+0 0  9997", "line2": "2 54243   0.0143 273.7282 0001710 357.8137  36.5025  1.00271366  5251"}}, "geometry": {"type": "Point", "coordinates": [76.10704484078298, 0.015899726627382284]}}, {"type": "Feature", "properties": {"norad_id": 54244, "name": "GALAXY 32 (G-32)", "group": "intelsat", "lat": 0.023795691350857077, "lon": 106.09792764568213, "alt_km": 35796.77525239142, "timestamp": "2025-12-12T07:43:20.171709+00:00", "meta": {"OBJECT_NAME": "GALAXY 32 (G-32)", "OBJECT_ID": "2022-153B", "EPOCH": "2025-12-11T19:55:38.198208", "MEAN_MOTION": 1.00270455, "ECCENTRICITY": 0.00027161, "INCLINATION": 0.0095, "RA_OF_ASC_NODE": 3.9095, "ARG_OF_PERICENTER": 308.178, "MEAN_ANOMALY": 336.5954, "EPHEMERIS_TYPE": 0, "CLASSIFICATION_TYPE": "U", "NORAD_CAT_ID": 54244, "ELEMENT_SET_NO": 999, "REV_AT_EPOCH": 1126, "BSTAR": 0, "MEAN_MOTION_DOT": -1.66e-06, "MEAN_MOTION_DDOT": 0}, "tle": {"line1": "1 54244U 22153B   25345.83030322 -.00000166  00000+0  00000+0 0  9994", "line2": "2 54244   0.0095   3.9095 0002716 308.1780 336.5954  1.00270455 11263"}}, "geometry": {"type": "Point", "coordinates": [106.09792764568213, 0.023795691350857077]}}, {"type": "Feature", "properties": {"norad_id": 54741, "name": "GALAXY 35 (G-35)", "group": "intelsat", "lat": 0.005394534917033909, "lon": 103.99796723213674, "alt_km": 35796.363934992274, "timestamp": "2025-12-12T07:43:20.171720+00:00", "meta": {"OBJECT_NAME": "GALAXY 35 (G-35)", "OBJECT_ID": "2022-170A", "EPOCH": "2025-12-11T23:20:28.116096", "MEAN_MOTION": 1.0027124, "ECCENTRICITY": 0.0002508, "INCLINATION": 0.0136, "RA_OF_ASC_NODE": 266.4457, "ARG_OF_PERICENTER": 359.9145, "MEAN_ANOMALY": 71.5916, "EPHEMERIS_TYPE": 0, "CLASSIFICATION_TYPE": "U", "NORAD_CAT_ID": 54741, "ELEMENT_SET_NO": 999, "REV_AT_EPOCH": 1101, "BSTAR": 0, "MEAN_MOTION_DOT": -1.54e-06, "MEAN_MOTION_DDOT": 0}, "tle": {"line1": "1 54741U 22170A   25345.97254764 -.00000154  00000+0  00000+0 0  9995", "line2": "2 54741   0.0136 266.4457 0002508 359.9145  71.5916  1.00271240 11017"}}, "geometry": {"type": "Point", "coordinates": [103.99796723213674, 0.005394534917033909]}}, {"type": "Feature", "properties": {"norad_id": 54742, "name": "GALAXY 36 (G-36)", "group": "intelsat", "lat": 0.012751926105480505, "lon": 108.10088820939588, "alt_km": 35787.61417776059, "timestamp": "2025-12-12T07:43:20.171732+00:00", "meta": {"OBJECT_NAME": "GALAXY 36 (G-36)", "OBJECT_ID": "2022-170B", "EPOCH": "2025-12-11T23:21:35.508096", "MEAN_MOTION": 1.00272269, "ECCENTRICITY": 3.908e-05, "INCLINATION": 0.0199, "RA_OF_ASC_NODE": 90.6987, "ARG_OF_PERICENTER": 197.4989, "MEAN_ANOMALY": 54.1286, "EPHEMERIS_TYPE": 0, "CLASSIFICATION_TYPE": "U", "NORAD_CAT_ID": 54742, "ELEMENT_SET_NO": 999, "REV_AT_EPOCH": 1089, "BSTAR": 0, "MEAN_MOTION_DOT": -1.77e-06, "MEAN_MOTION_DDOT": 0}, "tle": {"line1": "1 54742U 22170B   25345.97332764 -.00000177  00000+0  00000+0 0  9998", "line2": "2 54742   0.0199  90.6987 0000390 197.4989  54.1286  1.00272269 10894"}}, "geometry": {"type": "Point", "coordinates": [108.10088820939588, 0.012751926105480505]}}, {"type": "Feature", "properties": {"norad_id": 57493, "name": "GALAXY 37 (G-37)", "group": "intelsat", "lat": 0.02176061627402563, "lon": 70.10712944041641, "alt_km": 35795.06614443415, "timestamp": "2025-12-12T07:43:20.171744+00:00", "meta": {"OBJECT_NAME": "GALAXY 37 (G-37)", "OBJECT_ID": "2023-112A", "EPOCH": "2025-12-11T23:10:51.536064", "MEAN_MOTION": 1.00271457, "ECCENTRICITY": 0.00021823, "INCLINATION": 0.0116, "RA_OF_ASC_NODE": 26.3064, "ARG_OF_PERICENTER": 238.8918, "MEAN_ANOMALY": 36.4381, "EPHEMERIS_TYPE": 0, "CLASSIFICATION_TYPE": "U", "NORAD_CAT_ID": 57493, "ELEMENT_SET_NO": 999, "REV_AT_EPOCH": 866, "BSTAR": 0, "MEAN_MOTION_DOT": 5.7e-07, "MEAN_MOTION_DDOT": 0}, "tle": {"line1": "1 57493U 23112A   25345.96587426  .00000057  00000+0  00000+0 0  9993", "line2": "2 57493   0.0116  26.3064 0002182 238.8918  36.4381  1.00271457  8663"}}, "geometry": {"type": "Point", "coordinates": [70.10712944041641, 0.02176061627402563]}}]}